STARLINK-31931          
1 59864U 24098G   26068.95962600  .00000500  00000+0  27685-4 0  9990
2 59864  43.0021 276.7970 0001059 235.6554 124.4198 15.27569890101886
TROLL                   
1 62658U 25009BB  26068.22522958  .00013174  00000+0  48220-3 0  9994
2 62658  97.3932 150.7169 0001816  59.1850 300.9568 15.28164315118170
